{
  "type": "FeatureCollection",
  "features": [
    {
      "type": "Feature",
      "properties": {
        "name": "Proposed Feasible Alignment_ 44.3km"
      },
      "geometry": {
        "type": "LineString",
        "coordinates": [
          [
            116.0494166444113,
            5.883974015676091
          ],
          [
            116.0494344136681,
            5.88532003674671
          ],
          [
            116.0504315988578,
            5.885920465150572
          ],
          [
            116.0517326564584,
            5.885874635383605
          ],
          [
            116.0529293738421,
            5.886469294090412
          ],
          [
            116.0543457679522,
            5.886790500656295
          ],
          [
            116.0562563473754,
            5.886739924273965
          ],
          [
            116.0583070433062,
            5.885875424617711
          ],
          [
            116.0599488640133,
            5.8852471889342
          ],
          [
            116.0627136965351,
            5.884956865721043
          ],
          [
            116.0644592044232,
            5.886134780117252
          ],
          [
            116.0658395019572,
            5.887383313873824
          ],
          [
            116.0667833586555,
            5.887797384085891
          ],
          [
            116.0684596020726,
            5.887779556832502
          ],
          [
            116.0710076784327,
            5.886911074764791
          ],
          [
            116.0724693763114,
            5.886742508517902
          ],
          [
            116.0743778008592,
            5.887279439817436
          ],
          [
            116.0762432079793,
            5.88839404850168
          ],
          [
            116.0781515354094,
            5.889486349082448
          ],
          [
            116.0789801554865,
            5.889861931861362
          ],
          [
            116.0810384127728,
            5.890335808043506
          ],
          [
            116.0838487434709,
            5.891139006115385
          ],
          [
            116.0863488507408,
            5.891588187433712
          ],
          [
            116.0875006147833,
            5.892051824433876
          ],
          [
            116.0888064094494,
            5.8935944015734
          ],
          [
            116.0895242846877,
            5.894461710646543
          ],
          [
            116.0913821374497,
            5.89608835637047
          ],
          [
            116.0936016531347,
            5.897391909399074
          ],
          [
            116.0954433435307,
            5.89818658126758
          ],
          [
            116.0966442756885,
            5.898512680776463
          ],
          [
            116.0988282676361,
            5.898725741733643
          ],
          [
            116.1061598443368,
            5.89886088768096
          ],
          [
            116.1095640948081,
            5.898942636340941
          ],
          [
            116.1125572856118,
            5.899300009623689
          ],
          [
            116.1146316210496,
            5.901045894155368
          ],
          [
            116.1156437782064,
            5.903093643883
          ],
          [
            116.1155453765341,
            5.905780140485586
          ],
          [
            116.1149661617155,
            5.907256902095741
          ],
          [
            116.1151151512463,
            5.909184344535867
          ],
          [
            116.1172958471176,
            5.909809181096451
          ],
          [
            116.1210530335806,
            5.90991845422654
          ],
          [
            116.1237924246172,
            5.912266999264841
          ],
          [
            116.1254937461904,
            5.913925935330998
          ],
          [
            116.1257807640026,
            5.91556821666855
          ],
          [
            116.1254295525757,
            5.917694835645614
          ],
          [
            116.1258130054564,
            5.919746895671055
          ],
          [
            116.1276821079259,
            5.923863865483166
          ],
          [
            116.1299889255443,
            5.928724329615317
          ],
          [
            116.1313924119542,
            5.930993347785824
          ],
          [
            116.1340530182126,
            5.932183837769236
          ],
          [
            116.1358704743352,
            5.93329881683418
          ],
          [
            116.1366841093242,
            5.935426272521839
          ],
          [
            116.1368218865826,
            5.939035059708582
          ],
          [
            116.1372155283911,
            5.943177069548059
          ],
          [
            116.1382620901191,
            5.946436705310237
          ],
          [
            116.1393313780424,
            5.950723029656987
          ],
          [
            116.1403450821751,
            5.952866822218565
          ],
          [
            116.1410344830949,
            5.954520061369167
          ],
          [
            116.141109744158,
            5.955651112575273
          ],
          [
            116.1423028708949,
            5.957996029555645
          ],
          [
            116.1440179725187,
            5.960239253056553
          ],
          [
            116.1465326119835,
            5.961404105738364
          ],
          [
            116.1485781101813,
            5.962673722406135
          ],
          [
            116.150360464781,
            5.964253774896837
          ],
          [
            116.1515748588226,
            5.965908943082777
          ],
          [
            116.1526346671262,
            5.968692090103245
          ],
          [
            116.1531265579283,
            5.969518231644106
          ],
          [
            116.1545857220133,
            5.970772689400691
          ],
          [
            116.1571536879995,
            5.972835151765824
          ],
          [
            116.1586171670795,
            5.974694716962312
          ],
          [
            116.158963851118,
            5.975946832092928
          ],
          [
            116.1588555541944,
            5.977051158511879
          ],
          [
            116.158994655591,
            5.979502438089193
          ],
          [
            116.1593725346948,
            5.980598246038087
          ],
          [
            116.1614939112662,
            5.98176502898634
          ],
          [
            116.1635398611825,
            5.982801580540945
          ],
          [
            116.1669101056677,
            5.985395576219801
          ],
          [
            116.1693870985449,
            5.98800686276731
          ],
          [
            116.1706800698976,
            5.99044498955954
          ],
          [
            116.1714728602817,
            5.992608051885018
          ],
          [
            116.1713735081281,
            5.995092934312115
          ],
          [
            116.1726070232366,
            5.997086128735481
          ],
          [
            116.1743009191768,
            5.998698571664277
          ],
          [
            116.1752778203183,
            5.999968112979714
          ],
          [
            116.1753261924467,
            6.001399778829057
          ],
          [
            116.1742987920549,
            6.002038861458092
          ],
          [
            116.1720723862372,
            6.004615918814429
          ],
          [
            116.1718971706003,
            6.005918588367777
          ],
          [
            116.1724379157317,
            6.007078920663836
          ],
          [
            116.1718321681758,
            6.010261781480724
          ],
          [
            116.1714711290415,
            6.011738573259841
          ],
          [
            116.1712563042533,
            6.013063830580655
          ],
          [
            116.1714542793453,
            6.013912843232138
          ],
          [
            116.1725662955707,
            6.015674338784533
          ],
          [
            116.174201763035,
            6.017955461897245
          ],
          [
            116.1748953040203,
            6.019434395187613
          ],
          [
            116.1749344041445,
            6.020973398021395
          ],
          [
            116.1741925546384,
            6.023006772414234
          ],
          [
            116.1742164032527,
            6.0246671955098
          ],
          [
            116.1751622639247,
            6.026598050609503
          ],
          [
            116.1775102956859,
            6.029517470058593
          ],
          [
            116.1785716659532,
            6.031920316634986
          ],
          [
            116.1786611114591,
            6.035324563701763
          ],
          [
            116.1780447610563,
            6.03707446606734
          ],
          [
            116.1766868005072,
            6.03898877862475
          ],
          [
            116.1752653420103,
            6.039798615332535
          ],
          [
            116.1739146131857,
            6.041100364456643
          ],
          [
            116.1727252568965,
            6.042671230426452
          ],
          [
            116.1706671351536,
            6.044363464118359
          ],
          [
            116.1694274355834,
            6.045511357098472
          ],
          [
            116.1692194569952,
            6.046433514229854
          ],
          [
            116.169148765095,
            6.047716159512407
          ],
          [
            116.1695194358764,
            6.049567864828647
          ],
          [
            116.1699138221024,
            6.051343310553074
          ],
          [
            116.1701642152929,
            6.051841182980603
          ],
          [
            116.1706495479578,
            6.052857180459359
          ],
          [
            116.1712983546809,
            6.053630219921772
          ],
          [
            116.1720272400768,
            6.054438159390171
          ],
          [
            116.1732957010909,
            6.05559001579913
          ],
          [
            116.174241613319,
            6.05654101625592
          ],
          [
            116.1753585669174,
            6.057568956635603
          ],
          [
            116.1768652517535,
            6.058894373222097
          ],
          [
            116.1779580796929,
            6.05990266028295
          ],
          [
            116.1789888468771,
            6.06104509879755
          ],
          [
            116.1802863341275,
            6.062265385445035
          ],
          [
            116.1815189887151,
            6.063856886603301
          ],
          [
            116.1827075677713,
            6.066377052122686
          ],
          [
            116.1831292922121,
            6.067529001695845
          ],
          [
            116.1835310356424,
            6.068821283529938
          ],
          [
            116.1840396807076,
            6.07017336614275
          ],
          [
            116.1846499181226,
            6.07112208189248
          ],
          [
            116.1855422247119,
            6.072610488695156
          ],
          [
            116.1869178049637,
            6.074376721486701
          ],
          [
            116.1882361328043,
            6.076317219851602
          ],
          [
            116.1892973160427,
            6.078108028388673
          ],
          [
            116.1901420069117,
            6.079437921530728
          ],
          [
            116.1910221892002,
            6.081216721152426
          ],
          [
            116.1913823449418,
            6.08189728948946
          ],
          [
            116.1918506373475,
            6.083524686643463
          ],
          [
            116.1923203665542,
            6.085067176911317
          ],
          [
            116.1930047141886,
            6.086486451116816
          ],
          [
            116.1934050530308,
            6.087298381782024
          ],
          [
            116.1923097469416,
            6.088121472426929
          ],
          [
            116.1913613858143,
            6.088722294990455
          ],
          [
            116.1907289376223,
            6.089250175432565
          ],
          [
            116.1900564817696,
            6.089734016452568
          ],
          [
            116.1891359039506,
            6.090415099265041
          ],
          [
            116.1879650120699,
            6.091152670177085
          ],
          [
            116.1867624348109,
            6.092249538102283
          ],
          [
            116.1854313622541,
            6.093043069953086
          ],
          [
            116.1840627193677,
            6.093926364323095
          ],
          [
            116.1830456582888,
            6.094595109922049
          ],
          [
            116.1823488015024,
            6.095112153187792
          ],
          [
            116.181542943919,
            6.095888276347869
          ],
          [
            116.180514410198,
            6.096339937418536
          ],
          [
            116.1795891061862,
            6.096867561345467
          ],
          [
            116.1788671630141,
            6.097183152840379
          ],
          [
            116.1777339798687,
            6.097798247874538
          ],
          [
            116.1763855243719,
            6.098574179364079
          ],
          [
            116.1754037174269,
            6.099117489596437
          ],
          [
            116.1748627723249,
            6.09963544365884
          ],
          [
            116.1745630275404,
            6.099631244913928
          ],
          [
            116.1741281182985,
            6.099286831713319
          ],
          [
            116.1734236133032,
            6.098692887295778
          ],
          [
            116.1726144479463,
            6.098256446609736
          ],
          [
            116.171582673273,
            6.097770679275178
          ],
          [
            116.1705479135267,
            6.097158514617975
          ],
          [
            116.1698059566337,
            6.096867206637476
          ],
          [
            116.1687480311707,
            6.096645463526807
          ],
          [
            116.1675822864531,
            6.096465757238453
          ],
          [
            116.1661936886295,
            6.096295161986007
          ],
          [
            116.1647294735622,
            6.096406691390972
          ],
          [
            116.1634084550031,
            6.096336353379379
          ],
          [
            116.1620540350823,
            6.095939262718527
          ],
          [
            116.1612170747419,
            6.095581538666826
          ],
          [
            116.160146993315,
            6.095199945328696
          ],
          [
            116.1586992798453,
            6.094738848920573
          ],
          [
            116.1577754636733,
            6.094239973376158
          ],
          [
            116.1569793107658,
            6.093659529228272
          ],
          [
            116.1563619638854,
            6.093149410822115
          ],
          [
            116.1557590165301,
            6.092590890365361
          ],
          [
            116.1549216046746,
            6.091765541517965
          ],
          [
            116.1545305615192,
            6.091314795759728
          ],
          [
            116.1538994569212,
            6.091370424651613
          ],
          [
            116.1533096255179,
            6.091463217909762
          ],
          [
            116.1526699097114,
            6.091703140207514
          ],
          [
            116.1519988532243,
            6.092037662486226
          ],
          [
            116.151529715709,
            6.092437383907265
          ],
          [
            116.1509721738289,
            6.092811871262733
          ],
          [
            116.1502977963837,
            6.093190552113557
          ],
          [
            116.1494418726719,
            6.093754343995434
          ],
          [
            116.1486171938855,
            6.094436145229772
          ],
          [
            116.1480404167912,
            6.095302826088509
          ],
          [
            116.1474425307864,
            6.096180945814318
          ],
          [
            116.1469322162899,
            6.096950385925571
          ],
          [
            116.146546903277,
            6.097225541449704
          ],
          [
            116.14609134006,
            6.097139832483865
          ],
          [
            116.1454912677752,
            6.097268019798415
          ],
          [
            116.1449387853101,
            6.097380698762484
          ],
          [
            116.1445607136936,
            6.097325632620892
          ],
          [
            116.1438731491412,
            6.096925432445775
          ],
          [
            116.1432829401235,
            6.096550438321623
          ],
          [
            116.1426153811068,
            6.096159991707388
          ],
          [
            116.1420324395873,
            6.095939932841806
          ],
          [
            116.1413957985022,
            6.095523673899209
          ],
          [
            116.140553107896,
            6.095015664727885
          ],
          [
            116.1396897146521,
            6.094825032836369
          ],
          [
            116.1383809129879,
            6.094190021404393
          ],
          [
            116.1376216859343,
            6.093954869797334
          ],
          [
            116.1366383482928,
            6.093426582128831
          ],
          [
            116.1359264801782,
            6.093066675915097
          ],
          [
            116.135142381631,
            6.092822318588192
          ],
          [
            116.1345552003991,
            6.092426635665103
          ],
          [
            116.1339143072859,
            6.092126644526149
          ],
          [
            116.1333682491124,
            6.091625560793163
          ],
          [
            116.1330284696207,
            6.090395369386685
          ],
          [
            116.132685601753,
            6.089384901313818
          ],
          [
            116.1327458797386,
            6.088448544351432
          ],
          [
            116.13282494093,
            6.087556662485367
          ],
          [
            116.1330240503901,
            6.086952473108664
          ],
          [
            116.1333796650245,
            6.086294664872504
          ],
          [
            116.1337198033827,
            6.085966113298205
          ],
          [
            116.1339496354754,
            6.085193014004218
          ],
          [
            116.1339352316295,
            6.084662654400608
          ],
          [
            116.133507317199,
            6.084184376180255
          ],
          [
            116.1327696894862,
            6.083660362729769
          ],
          [
            116.1320144915637,
            6.083137994526149
          ],
          [
            116.1316007554449,
            6.082830221375057
          ],
          [
            116.1314012324175,
            6.082711191727288
          ],
          [
            116.1311391598266,
            6.082381698401288
          ],
          [
            116.1309779459701,
            6.082147749629213
          ],
          [
            116.1308326748197,
            6.081917810806578
          ],
          [
            116.1306970392249,
            6.08172048860778
          ],
          [
            116.1305379472242,
            6.081460337347212
          ],
          [
            116.1303748698731,
            6.081193117106889
          ],
          [
            116.1302365396902,
            6.080881193741528
          ],
          [
            116.1302071377377,
            6.080370502404242
          ],
          [
            116.1302026526443,
            6.079914320054366
          ],
          [
            116.1302317079103,
            6.079623868289834
          ],
          [
            116.1302731085785,
            6.07915950397577
          ],
          [
            116.1303356753611,
            6.078643691862895
          ],
          [
            116.1303699132711,
            6.078251407724568
          ],
          [
            116.1304163002438,
            6.077816551726546
          ],
          [
            116.1304342265778,
            6.077458209865743
          ],
          [
            116.1304110785943,
            6.077126320412509
          ],
          [
            116.1303744870433,
            6.076728270843608
          ],
          [
            116.1303267692127,
            6.076282553097209
          ],
          [
            116.1303322711358,
            6.075862387195476
          ],
          [
            116.1303152142497,
            6.075605884070232
          ],
          [
            116.1303171151979,
            6.075401774376894
          ],
          [
            116.130211660503,
            6.075214574214883
          ],
          [
            116.1300140429558,
            6.074968460556274
          ],
          [
            116.1297960935953,
            6.074735199649169
          ],
          [
            116.1294900095449,
            6.074385363420251
          ],
          [
            116.1292205638937,
            6.074102873915319
          ],
          [
            116.1288972825546,
            6.073809720775573
          ],
          [
            116.1285057786628,
            6.073395073717336
          ],
          [
            116.1282854168266,
            6.073131687499858
          ],
          [
            116.1280150274428,
            6.072717465667942
          ],
          [
            116.1277860511885,
            6.072443025998608
          ],
          [
            116.1276022172652,
            6.072293312084855
          ],
          [
            116.1274531385971,
            6.07199282982695
          ],
          [
            116.1272081350395,
            6.071690296796771
          ],
          [
            116.1269720399758,
            6.071387315915977
          ],
          [
            116.1267380021473,
            6.071076835890289
          ],
          [
            116.1266009470776,
            6.070808664555498
          ],
          [
            116.1263746647395,
            6.070515992938449
          ],
          [
            116.1261559877343,
            6.07028172482921
          ],
          [
            116.1259314876951,
            6.07006613384247
          ],
          [
            116.1257962833529,
            6.069804069988312
          ],
          [
            116.1256115795105,
            6.069621968634987
          ],
          [
            116.1253920307527,
            6.069445595399495
          ],
          [
            116.1251049894798,
            6.069286080631542
          ],
          [
            116.1249360065782,
            6.069134890801833
          ],
          [
            116.1249866297786,
            6.068807331437545
          ],
          [
            116.1250460814584,
            6.068555015121646
          ],
          [
            116.1250629039491,
            6.068345270296738
          ],
          [
            116.1250967480592,
            6.06804297638807
          ],
          [
            116.1251725954452,
            6.067656944921447
          ],
          [
            116.1252147317116,
            6.067438677899817
          ]
        ]
      }
    },
    {
      "type": "Feature",
      "properties": {
        "name": "Sepangar Port"
      },
      "geometry": {
        "type": "Point",
        "coordinates": [
          116.1225863396507,
          6.068917363923638
        ]
      }
    },
    {
      "type": "Feature",
      "properties": {
        "name": "KKIP"
      },
      "geometry": {
        "type": "Point",
        "coordinates": [
          116.1585139614745,
          6.087617157869235
        ]
      }
    },
    {
      "type": "Feature",
      "properties": {
        "name": "Corridor Area"
      },
      "geometry": {
        "type": "Polygon",
        "coordinates": [
          [
            [
              116.04860006338,
              5.881825344291006
            ],
            [
              116.079780110453,
              5.881826048985996
            ],
            [
              116.110256320677,
              5.892301720736119
            ],
            [
              116.1328665714957,
              5.915692713716902
            ],
            [
              116.1448593548507,
              5.939258940013588
            ],
            [
              116.1553030612234,
              5.956584558055086
            ],
            [
              116.1661437029106,
              5.969903904995675
            ],
            [
              116.1816593124984,
              5.999518856672019
            ],
            [
              116.1810839551952,
              6.012537316037948
            ],
            [
              116.1876657687458,
              6.045722486556139
            ],
            [
              116.1935231122482,
              6.058843000533087
            ],
            [
              116.1977040744578,
              6.085015062619635
            ],
            [
              116.1886811735722,
              6.098675437351642
            ],
            [
              116.1734372804914,
              6.102047602652233
            ],
            [
              116.1658542157483,
              6.098449967409207
            ],
            [
              116.1542030053113,
              6.095593907052533
            ],
            [
              116.1490584988779,
              6.098509902760511
            ],
            [
              116.1456929760915,
              6.09948214131731
            ],
            [
              116.139129285661,
              6.097883099287884
            ],
            [
              116.1322344254312,
              6.092577838564201
            ],
            [
              116.1308567805348,
              6.08987958817425
            ],
            [
              116.1324011834794,
              6.08491576731249
            ],
            [
              116.1302884642333,
              6.083117921888451
            ],
            [
              116.1287146867777,
              6.079746518493206
            ],
            [
              116.1290945113597,
              6.078821715666111
            ],
            [
              116.1297097658797,
              6.077923071060159
            ],
            [
              116.1296052430902,
              6.076139636113502
            ],
            [
              116.1287103564403,
              6.074932487908719
            ],
            [
              116.1281730298003,
              6.074236755059176
            ],
            [
              116.1246384323806,
              6.074031417569621
            ],
            [
              116.1211140318606,
              6.069210942255661
            ],
            [
              116.1215872663733,
              6.066038871075763
            ],
            [
              116.1270256454395,
              6.062106149633247
            ],
            [
              116.1351080744801,
              6.060324989577182
            ],
            [
              116.147187784423,
              6.061859387579696
            ],
            [
              116.1484051975692,
              6.051409575027582
            ],
            [
              116.1469814101221,
              6.04706684872451
            ],
            [
              116.1440374047711,
              6.0427783122552
            ],
            [
              116.1357033111871,
              6.035333120697082
            ],
            [
              116.1296152471266,
              6.037821034493536
            ],
            [
              116.1232212236366,
              6.035590238306365
            ],
            [
              116.1181811947537,
              6.031273313556425
            ],
            [
              116.1140231824024,
              6.021822421540472
            ],
            [
              116.112412563782,
              6.01468735488359
            ],
            [
              116.1100172752264,
              6.006423287432455
            ],
            [
              116.1100434222555,
              6.005771304171352
            ],
            [
              116.1097588113255,
              6.005136206904812
            ],
            [
              116.1091189047789,
              6.003559183777593
            ],
            [
              116.1091461162596,
              6.003355479342498
            ],
            [
              116.1093115627674,
              6.002967499586743
            ],
            [
              116.1094461770522,
              6.002502303134433
            ],
            [
              116.1093814377979,
              6.002197602761763
            ],
            [
              116.1093019363232,
              6.001952368664956
            ],
            [
              116.1087042583092,
              6.000531670759032
            ],
            [
              116.107903424491,
              5.999081161480775
            ],
            [
              116.1075367018379,
              5.998505899876094
            ],
            [
              116.1069808453271,
              5.997894284921616
            ],
            [
              116.1061685837453,
              5.99705399229258
            ],
            [
              116.1058340241832,
              5.996914389188587
            ],
            [
              116.1052895414768,
              5.99685150964615
            ],
            [
              116.1049524461477,
              5.996640544351819
            ],
            [
              116.1046127783831,
              5.99628468628113
            ],
            [
              116.1043201275933,
              5.995519610893264
            ],
            [
              116.1000566277527,
              5.992625405384286
            ],
            [
              116.098679461497,
              5.991861248476855
            ],
            [
              116.0981151363064,
              5.991909668849253
            ],
            [
              116.097557014984,
              5.992041513353194
            ],
            [
              116.0963546592668,
              5.992418439130265
            ],
            [
              116.093816410788,
              5.993082300834395
            ],
            [
              116.0929648351658,
              5.993334616350503
            ],
            [
              116.092808319176,
              5.993390266499699
            ],
            [
              116.0925231995689,
              5.993608236439108
            ],
            [
              116.0923072878857,
              5.993818437791838
            ],
            [
              116.09202520285,
              5.994138556543108
            ],
            [
              116.0917988251155,
              5.994647741464799
            ],
            [
              116.0900722147156,
              5.99778539214923
            ],
            [
              116.0893642823065,
              5.998254387113128
            ],
            [
              116.0888746507386,
              5.998440037254348
            ],
            [
              116.0882123470237,
              5.998554927416477
            ],
            [
              116.0875736146066,
              5.998438862235585
            ],
            [
              116.0873347904644,
              5.99839099802199
            ],
            [
              116.0869954019046,
              5.99826326128811
            ],
            [
              116.0863939050805,
              5.997951398564206
            ],
            [
              116.0860070830334,
              5.997695953732244
            ],
            [
              116.0847669119008,
              5.996837869957472
            ],
            [
              116.079241091582,
              5.991491651540129
            ],
            [
              116.0595412080367,
              5.96231817439477
            ],
            [
              116.0543188348622,
              5.948332221872271
            ],
            [
              116.0529763414057,
              5.94125196556482
            ],
            [
              116.0494198762017,
              5.924207036712848
            ],
            [
              116.0438164497503,
              5.90690157470442
            ],
            [
              116.04860006338,
              5.881825344291006
            ]
          ]
        ]
      }
    }
  ]
}